MALLIGYONG-1            
1 58400U 23179A   23365.93221145  .00004564  00000+0  20394-3 0  9994
2 58400  97.4251 250.1774 0016961 131.9543 228.3142 15.21713635  6138
